start=new Date('2023-06-19T00:00:00.000Z').valueOf();
sats=[{"MEAN_MOTION":"15.06429505","MEAN_MOTION_DOT":"0.00020474","EPHEMERIS_TYPE":"0","OBJECT_ID":"2021-018M","FILE":"3935891","RCS_SIZE":"LARGE","CENTER_NAME":"EARTH","REF_FRAME":"TEME","COUNTRY_CODE":"US","OBJECT_TYPE":"PAYLOAD","MEAN_ANOMALY":"276.8092","RA_OF_ASC_NODE":"22.0337","INCLINATION":"53.0550","TLE_LINE2":"2 47798  53.0550  22.0337 0000837  83.2992 276.8092 15.06429505126788","ARG_OF_PERICENTER":"83.2992","EPOCH":"2023-06-17T20:50:59.971488","GP_ID":"234170750","NORAD_CAT_ID":"47798","SITE":"AFETR","PERIOD":"95.590","BSTAR":"0.00138830000000","TLE_LINE1":"1 47798U 21018M   23168.86874967  .00020474  00000-0  13883-2 0  9994","DECAY_DATE":null,"CLASSIFICATION_TYPE":"U","REV_AT_EPOCH":"12678","ELEMENT_SET_NO":"999","MEAN_MOTION_DDOT":"0.0000000000000","OBJECT_NAME":"STARLINK-2379","TIME_SYSTEM":"UTC","APOAPSIS":"547.703","SEMIMAJOR_AXIS":"6925.258","MEAN_ELEMENT_THEORY":"SGP4","LAUNCH_DATE":"2021-03-11","PERIAPSIS":"546.543","ECCENTRICITY":"0.00008370"},{"NORAD_CAT_ID":"47799","GP_ID":"234244659","EPOCH":"2023-06-18T20:38:46.828608","SITE":"AFETR","TLE_LINE1":"1 47799U 21018N   23169.86026422  .00004823  00000-0  34235-3 0  9996","BSTAR":"0.00034235000000","PERIOD":"95.592","REV_AT_EPOCH":"12692","CLASSIFICATION_TYPE":"U","DECAY_DATE":null,"MEAN_MOTION_DOT":"0.00004823","MEAN_MOTION":"15.06409996","RCS_SIZE":"LARGE","FILE":"3936745","EPHEMERIS_TYPE":"0","OBJECT_ID":"2021-018N","RA_OF_ASC_NODE":"17.5803","OBJECT_TYPE":"PAYLOAD","MEAN_ANOMALY":"256.5677","COUNTRY_CODE":"US","REF_FRAME":"TEME","CENTER_NAME":"EARTH","TLE_LINE2":"2 47799  53.0555  17.5803 0001765 103.5509 256.5677 15.06409996126924","ARG_OF_PERICENTER":"103.5509","INCLINATION":"53.0555","MEAN_ELEMENT_THEORY":"SGP4","SEMIMAJOR_AXIS":"6925.318","ECCENTRICITY":"0.00017650","LAUNCH_DATE":"2021-03-11","PERIAPSIS":"545.961","OBJECT_NAME":"STARLINK-2380","MEAN_MOTION_DDOT":"0.0000000000000","ELEMENT_SET_NO":"999","APOAPSIS":"548.405","TIME_SYSTEM":"UTC"},{"EPOCH":"2023-06-18T21:10:38.545248","GP_ID":"234245408","NORAD_CAT_ID":"47800","SITE":"AFETR","PERIOD":"95.593","BSTAR":"0.00095371000000","TLE_LINE1":"1 47800U 21018P   23169.88239057  .00013949  00000-0  95371-3 0  9998","CLASSIFICATION_TYPE":"U","DECAY_DATE":null,"REV_AT_EPOCH":"12693","MEAN_MOTION":"15.06389920","MEAN_MOTION_DOT":"0.00013949","OBJECT_ID":"2021-018P","EPHEMERIS_TYPE":"0","FILE":"3936745","RCS_SIZE":"LARGE","CENTER_NAME":"EARTH","REF_FRAME":"TEME","COUNTRY_CODE":"US","MEAN_ANOMALY":"272.5306","OBJECT_TYPE":"PAYLOAD","RA_OF_ASC_NODE":"17.4864","INCLINATION":"53.0539","ARG_OF_PERICENTER":"87.5821","TLE_LINE2":"2 47800  53.0539  17.4864 0001204  87.5821 272.5306 15.06389920126933","SEMIMAJOR_AXIS":"6925.379","MEAN_ELEMENT_THEORY":"SGP4","LAUNCH_DATE":"2021-03-11","PERIAPSIS":"546.411","ECCENTRICITY":"0.00012040","MEAN_MOTION_DDOT":"0.0000000000000","ELEMENT_SET_NO":"999","OBJECT_NAME":"STARLINK-2381","TIME_SYSTEM":"UTC","APOAPSIS":"548.078"},{"APOAPSIS":"548.240","TIME_SYSTEM":"UTC","OBJECT_NAME":"STARLINK-2382","MEAN_MOTION_DDOT":"0.0000000000000","ELEMENT_SET_NO":"999","ECCENTRICITY":"0.00014430","LAUNCH_DATE":"2021-03-11","PERIAPSIS":"546.242","MEAN_ELEMENT_THEORY":"SGP4","SEMIMAJOR_AXIS":"6925.376","RA_OF_ASC_NODE":"22.7062","OBJECT_TYPE":"PAYLOAD","MEAN_ANOMALY":"266.2042","COUNTRY_CODE":"US","REF_FRAME":"TEME","CENTER_NAME":"EARTH","TLE_LINE2":"2 47801  53.0538  22.7062 0001443  93.9112 266.2042 15.06391037126862","ARG_OF_PERICENTER":"93.9112","INCLINATION":"53.0538","MEAN_MOTION_DOT":"0.00007247","MEAN_MOTION":"15.06391037","RCS_SIZE":"LARGE","FILE":"3936745","OBJECT_ID":"2021-018Q","EPHEMERIS_TYPE":"0","TLE_LINE1":"1 47801U 21018Q   23169.85061945  .00007247  00000-0  50503-3 0  9997","BSTAR":"0.00050503000000","PERIOD":"95.593","REV_AT_EPOCH":"12686","CLASSIFICATION_TYPE":"U","DECAY_DATE":null,"NORAD_CAT_ID":"47801","EPOCH":"2023-06-18T20:24:53.520480","GP_ID":"234245152","SITE":"AFETR"},{"TLE_LINE2":"2 47802  53.0543  43.0133 0001437  90.7453 269.3701 15.06380956126224","ARG_OF_PERICENTER":"90.7453","INCLINATION":"53.0543","COUNTRY_CODE":"US","RA_OF_ASC_NODE":"43.0133","OBJECT_TYPE":"PAYLOAD","MEAN_ANOMALY":"269.3701","CENTER_NAME":"EARTH","REF_FRAME":"TEME","FILE":"3936583","RCS_SIZE":"LARGE","OBJECT_ID":"2021-018R","EPHEMERIS_TYPE":"0","MEAN_MOTION_DOT":"0.00006266","MEAN_MOTION":"15.06380956","REV_AT_EPOCH":"12622","DECAY_DATE":null,"CLASSIFICATION_TYPE":"U","BSTAR":"0.00043943000000","TLE_LINE1":"1 47802U 21018R   23169.76397750  .00006266  00000-0  43943-3 0  9994","PERIOD":"95.593","SITE":"AFETR","GP_ID":"234218830","EPOCH":"2023-06-18T18:20:07.656000","NORAD_CAT_ID":"47802","TIME_SYSTEM":"UTC","APOAPSIS":"548.267","OBJECT_NAME":"STARLINK-2383","ELEMENT_SET_NO":"999","MEAN_MOTION_DDOT":"0.0000000000000","PERIAPSIS":"546.277","LAUNCH_DATE":"2021-03-11","ECCENTRICITY":"0.00014370","MEAN_ELEMENT_THEORY":"SGP4","SEMIMAJOR_AXIS":"6925.407"},{"TIME_SYSTEM":"UTC","APOAPSIS":"548.329","OBJECT_NAME":"STARLINK-2384","ELEMENT_SET_NO":"999","MEAN_MOTION_DDOT":"0.0000000000000","LAUNCH_DATE":"2021-03-11","PERIAPSIS":"546.166","ECCENTRICITY":"0.00015620","MEAN_ELEMENT_THEORY":"SGP4","SEMIMAJOR_AXIS":"6925.383","ARG_OF_PERICENTER":"84.7660","TLE_LINE2":"2 47803  53.0541  18.3237 0001562  84.7660 275.3507 15.06388852126904","INCLINATION":"53.0541","COUNTRY_CODE":"US","OBJECT_TYPE":"PAYLOAD","RA_OF_ASC_NODE":"18.3237","MEAN_ANOMALY":"275.3507","CENTER_NAME":"EARTH","REF_FRAME":"TEME","FILE":"3936745","RCS_SIZE":"LARGE","OBJECT_ID":"2021-018S","EPHEMERIS_TYPE":"0","MEAN_MOTION_DOT":"-0.00002237","MEAN_MOTION":"15.06388852","REV_AT_EPOCH":"12690","DECAY_DATE":null,"CLASSIFICATION_TYPE":"U","BSTAR":"-0.00013133000000","TLE_LINE1":"1 47803U 21018S   23169.69440758 -.00002237  00000-0 -13133-3 0  9998","PERIOD":"95.593","SITE":"AFETR","EPOCH":"2023-06-18T16:39:56.814912","GP_ID":"234244160","NORAD_CAT_ID":"47803"},{"MEAN_ELEMENT_THEORY":"SGP4","SEMIMAJOR_AXIS":"6925.354","ECCENTRICITY":"0.00013800","LAUNCH_DATE":"2021-03-11","PERIAPSIS":"546.263","OBJECT_NAME":"STARLINK-2385","ELEMENT_SET_NO":"999","MEAN_MOTION_DDOT":"0.0000000000000","APOAPSIS":"548.174","TIME_SYSTEM":"UTC","SITE":"AFETR","NORAD_CAT_ID":"47804","GP_ID":"234217313","EPOCH":"2023-06-18T20:12:15.399360","REV_AT_EPOCH":"12658","CLASSIFICATION_TYPE":"U","DECAY_DATE":null,"TLE_LINE1":"1 47804U 21018T   23169.84184490  .00003669  00000-0  26512-3 0  9997","BSTAR":"0.00026512000000","PERIOD":"95.592","RCS_SIZE":"LARGE","FILE":"3936474","OBJECT_ID":"2021-018T","EPHEMERIS_TYPE":"0","MEAN_MOTION_DOT":"0.00003669","MEAN_MOTION":"15.06398347","TLE_LINE2":"2 47804  53.0537  17.6635 0001380  98.4730 261.6416 15.06398347126583","ARG_OF_PERICENTER":"98.4730","INCLINATION":"53.0537","OBJECT_TYPE":"PAYLOAD","RA_OF_ASC_NODE":"17.6635","MEAN_ANOMALY":"261.6416","COUNTRY_CODE":"US","REF_FRAME":"TEME","CENTER_NAME":"EARTH"},{"SITE":"AFETR","EPOCH":"2023-06-18T21:00:04.105728","GP_ID":"234245652","NORAD_CAT_ID":"47805","CLASSIFICATION_TYPE":"U","DECAY_DATE":null,"REV_AT_EPOCH":"12693","PERIOD":"95.593","BSTAR":"0.00002239900000","TLE_LINE1":"1 47805U 21018U   23169.87504752  .00000052  00000-0  22399-4 0  9991","OBJECT_ID":"2021-018U","EPHEMERIS_TYPE":"0","FILE":"3936745","RCS_SIZE":"LARGE","MEAN_MOTION":"15.06393832","MEAN_MOTION_DOT":"0.00000052","INCLINATION":"53.0551","ARG_OF_PERICENTER":"100.5382","TLE_LINE2":"2 47805  53.0551  17.7567 0001765 100.5382 259.5806 15.06393832126932","CENTER_NAME":"EARTH","REF_FRAME":"TEME","COUNTRY_CODE":"US","RA_OF_ASC_NODE":"17.7567","OBJECT_TYPE":"PAYLOAD","MEAN_ANOMALY":"259.5806","SEMIMAJOR_AXIS":"6925.367","MEAN_ELEMENT_THEORY":"SGP4","LAUNCH_DATE":"2021-03-11","PERIAPSIS":"546.010","ECCENTRICITY":"0.00017650","MEAN_MOTION_DDOT":"0.0000000000000","ELEMENT_SET_NO":"999","OBJECT_NAME":"STARLINK-2386","TIME_SYSTEM":"UTC","APOAPSIS":"548.455"},{"MEAN_ANOMALY":"273.6668","OBJECT_TYPE":"PAYLOAD","RA_OF_ASC_NODE":"32.5040","COUNTRY_CODE":"US","REF_FRAME":"TEME","CENTER_NAME":"EARTH","TLE_LINE2":"2 47806  53.0545  32.5040 0001331  86.4474 273.6668 15.06389482126782","ARG_OF_PERICENTER":"86.4474","INCLINATION":"53.0545","MEAN_MOTION_DOT":"0.00016136","MEAN_MOTION":"15.06389482","RCS_SIZE":"LARGE","FILE":"3936745","EPHEMERIS_TYPE":"0","OBJECT_ID":"2021-018V","TLE_LINE1":"1 47806U 21018V   23169.87916697  .00016136  00000-0  11000-2 0  9992","BSTAR":"0.00110000000000","PERIOD":"95.593","REV_AT_EPOCH":"12678","DECAY_DATE":null,"CLASSIFICATION_TYPE":"U","NORAD_CAT_ID":"47806","EPOCH":"2023-06-18T21:06:00.026208","GP_ID":"234243910","SITE":"AFETR","APOAPSIS":"548.168","TIME_SYSTEM":"UTC","OBJECT_NAME":"STARLINK-2387","ELEMENT_SET_NO":"999","MEAN_MOTION_DDOT":"0.0000000000000","ECCENTRICITY":"0.00013310","PERIAPSIS":"546.324","LAUNCH_DATE":"2021-03-11","MEAN_ELEMENT_THEORY":"SGP4","SEMIMAJOR_AXIS":"6925.381"},{"RCS_SIZE":"LARGE","FILE":"3936745","OBJECT_ID":"2021-018W","EPHEMERIS_TYPE":"0","MEAN_MOTION_DOT":"-0.00000314","MEAN_MOTION":"15.06391879","ARG_OF_PERICENTER":"85.8288","TLE_LINE2":"2 47807  53.0545   8.4355 0001567  85.8288 274.2880 15.06391879127036","INCLINATION":"53.0545","RA_OF_ASC_NODE":"8.4355","OBJECT_TYPE":"PAYLOAD","MEAN_ANOMALY":"274.2880","COUNTRY_CODE":"US","REF_FRAME":"TEME","CENTER_NAME":"EARTH","SITE":"AFETR","NORAD_CAT_ID":"47807","EPOCH":"2023-06-18T16:04:06.898656","GP_ID":"234244660","REV_AT_EPOCH":"12703","CLASSIFICATION_TYPE":"U","DECAY_DATE":null,"TLE_LINE1":"1 47807U 21018W   23169.66952429 -.00000314  00000-0 -21699-5 0  9994","BSTAR":"-0.00000216990000","PERIOD":"95.593","OBJECT_NAME":"STARLINK-2388","ELEMENT_SET_NO":"999","MEAN_MOTION_DDOT":"0.0000000000000","APOAPSIS":"548.324","TIME_SYSTEM":"UTC","MEAN_ELEMENT_THEORY":"SGP4","SEMIMAJOR_AXIS":"6925.373","ECCENTRICITY":"0.00015670","LAUNCH_DATE":"2021-03-11","PERIAPSIS":"546.153"}];
